[{"OBJECT_NAME":"STARLINK-31387","OBJECT_ID":"2024-064K","EPOCH":"2026-03-08T01:26:48.265440","MEAN_MOTION":15.27584169,"ECCENTRICITY":0.00011819,"INCLINATION":43.0022,"RA_OF_ASC_NODE":65.6247,"ARG_OF_PERICENTER":254.2777,"MEAN_ANOMALY":105.7945,"EPHEMERIS_TYPE":0,"CLASSIFICATION_TYPE":"U","NORAD_CAT_ID":59407,"ELEMENT_SET_NO":999,"REV_AT_EPOCH":10897,"BSTAR":0.00015950311,"MEAN_MOTION_DOT":4.13e-5,"MEAN_MOTION_DDOT":0},{"OBJECT_NAME":"ELECTRON KICK STAGE R\/B","OBJECT_ID":"2024-047B","EPOCH":"2026-03-09T21:11:54.433824","MEAN_MOTION":15.27307897,"ECCENTRICITY":0.00092426,"INCLINATION":97.6338,"RA_OF_ASC_NODE":46.9382,"ARG_OF_PERICENTER":20.6031,"MEAN_ANOMALY":339.5579,"EPHEMERIS_TYPE":0,"CLASSIFICATION_TYPE":"U","NORAD_CAT_ID":59225,"ELEMENT_SET_NO":999,"REV_AT_EPOCH":10999,"BSTAR":0.00091229405,"MEAN_MOTION_DOT":0.00024409,"MEAN_MOTION_DDOT":0}]
